ORBCOMM FM37            
1 33064U 08031E   24223.84873314  .00006405  00000+0  92708-3 0  9992
2 33064  48.4414  16.2921 0005334 133.7978  14.9908 14.77008695868120
ORBCOMM FM40            
1 33065U 08031F   24223.82662378  .00006579  00000+0  91933-3 0  9998
2 33065  48.4438   4.8314 0006618 143.4065   9.9423 14.78478640868170
VESSELSAT 1             
1 37840U 11058C   24223.99034614  .00000635  00000+0  20237-3 0  9996
2 37840  19.9606 170.6826 0013674  15.4412 344.6408 14.11186782662667
ORBCOMM FM109           
1 40086U 14040A   24223.96027730  .00002833  00000+0  66204-3 0  9990
2 40086  47.0038  40.2547 0002007 310.0381  50.0328 14.56925168535928
ORBCOMM FM107           
1 40087U 14040B   24223.85694190  .00002817  00000+0  65856-3 0  9993
2 40087  47.0055  41.7177 0001800 276.5845  83.4835 14.56918194535861
ORBCOMM FM106           
1 40088U 14040C   24224.07552073  .00003694  00000+0  67700-3 0  9996
2 40088  47.0586 246.9465 0016940  63.9346 296.3285 14.67429852538109
ORBCOMM FM111           
1 40089U 14040D   24223.91569136  .00004065  00000+0  52256-3 0  9990
2 40089  47.0031 137.7022 0032496 150.3180 209.9567 14.82450333544129
ORBCOMM FM104           
1 40090U 14040E   24223.92430979  .00002087  00000+0  51355-3 0  9996
2 40090  47.0060  71.3666 0017377 228.2519 131.6880 14.55379353535404
