<?xml version="1.0" encoding="UTF-8"?>
<ndm xmlns:xsi="http://www.w3.org/2001/XMLSchema-instance" xsi:noNamespaceSchemaLocation="https://sanaregistry.org/r/ndmxml_unqualified/ndmxml-2.0.0-master-2.0.xsd">
<omm id="CCSDS_OMM_VERS" version="2.0">
<header><CREATION_DATE/><ORIGINATOR/></header><body><segment><metadata><OBJECT_NAME>ORBCOMM FM37</OBJECT_NAME><OBJECT_ID>2008-031E</OBJECT_ID><CENTER_NAME>EARTH</CENTER_NAME><REF_FRAME>TEME</REF_FRAME><TIME_SYSTEM>UTC</TIME_SYSTEM><MEAN_ELEMENT_THEORY>SGP4</MEAN_ELEMENT_THEORY></metadata><data><meanElements><EPOCH>2024-08-10T20:22:10.543296</EPOCH><MEAN_MOTION>14.77008695</MEAN_MOTION><ECCENTRICITY>.0005334</ECCENTRICITY><INCLINATION>48.4414</INCLINATION><RA_OF_ASC_NODE>16.2921</RA_OF_ASC_NODE><ARG_OF_PERICENTER>133.7978</ARG_OF_PERICENTER><MEAN_ANOMALY>14.9908</MEAN_ANOMALY></meanElements><tleParameters><EPHEMERIS_TYPE>0</EPHEMERIS_TYPE><CLASSIFICATION_TYPE>U</CLASSIFICATION_TYPE><NORAD_CAT_ID>33064</NORAD_CAT_ID><ELEMENT_SET_NO>999</ELEMENT_SET_NO><REV_AT_EPOCH>86812</REV_AT_EPOCH><BSTAR>.92708E-3</BSTAR><MEAN_MOTION_DOT>.6405E-4</MEAN_MOTION_DOT><MEAN_MOTION_DDOT>0</MEAN_MOTION_DDOT></tleParameters></data></segment></body></omm>
<omm id="CCSDS_OMM_VERS" version="2.0">
<header><CREATION_DATE/><ORIGINATOR/></header><body><segment><metadata><OBJECT_NAME>ORBCOMM FM40</OBJECT_NAME><OBJECT_ID>2008-031F</OBJECT_ID><CENTER_NAME>EARTH</CENTER_NAME><REF_FRAME>TEME</REF_FRAME><TIME_SYSTEM>UTC</TIME_SYSTEM><MEAN_ELEMENT_THEORY>SGP4</MEAN_ELEMENT_THEORY></metadata><data><meanElements><EPOCH>2024-08-10T19:50:20.294592</EPOCH><MEAN_MOTION>14.78478640</MEAN_MOTION><ECCENTRICITY>.0006618</ECCENTRICITY><INCLINATION>48.4438</INCLINATION><RA_OF_ASC_NODE>4.8314</RA_OF_ASC_NODE><ARG_OF_PERICENTER>143.4065</ARG_OF_PERICENTER><MEAN_ANOMALY>9.9423</MEAN_ANOMALY></meanElements><tleParameters><EPHEMERIS_TYPE>0</EPHEMERIS_TYPE><CLASSIFICATION_TYPE>U</CLASSIFICATION_TYPE><NORAD_CAT_ID>33065</NORAD_CAT_ID><ELEMENT_SET_NO>999</ELEMENT_SET_NO><REV_AT_EPOCH>86817</REV_AT_EPOCH><BSTAR>.91933E-3</BSTAR><MEAN_MOTION_DOT>.6579E-4</MEAN_MOTION_DOT><MEAN_MOTION_DDOT>0</MEAN_MOTION_DDOT></tleParameters></data></segment></body></omm>
<omm id="CCSDS_OMM_VERS" version="2.0">
<header><CREATION_DATE/><ORIGINATOR/></header><body><segment><metadata><OBJECT_NAME>VESSELSAT 1</OBJECT_NAME><OBJECT_ID>2011-058C</OBJECT_ID><CENTER_NAME>EARTH</CENTER_NAME><REF_FRAME>TEME</REF_FRAME><TIME_SYSTEM>UTC</TIME_SYSTEM><MEAN_ELEMENT_THEORY>SGP4</MEAN_ELEMENT_THEORY></metadata><data><meanElements><EPOCH>2024-08-10T23:46:05.906496</EPOCH><MEAN_MOTION>14.11186782</MEAN_MOTION><ECCENTRICITY>.0013674</ECCENTRICITY><INCLINATION>19.9606</INCLINATION><RA_OF_ASC_NODE>170.6826</RA_OF_ASC_NODE><ARG_OF_PERICENTER>15.4412</ARG_OF_PERICENTER><MEAN_ANOMALY>344.6408</MEAN_ANOMALY></meanElements><tleParameters><EPHEMERIS_TYPE>0</EPHEMERIS_TYPE><CLASSIFICATION_TYPE>U</CLASSIFICATION_TYPE><NORAD_CAT_ID>37840</NORAD_CAT_ID><ELEMENT_SET_NO>999</ELEMENT_SET_NO><REV_AT_EPOCH>66266</REV_AT_EPOCH><BSTAR>.20237E-3</BSTAR><MEAN_MOTION_DOT>.635E-5</MEAN_MOTION_DOT><MEAN_MOTION_DDOT>0</MEAN_MOTION_DDOT></tleParameters></data></segment></body></omm>
<omm id="CCSDS_OMM_VERS" version="2.0">
<header><CREATION_DATE/><ORIGINATOR/></header><body><segment><metadata><OBJECT_NAME>ORBCOMM FM109</OBJECT_NAME><OBJECT_ID>2014-040A</OBJECT_ID><CENTER_NAME>EARTH</CENTER_NAME><REF_FRAME>TEME</REF_FRAME><TIME_SYSTEM>UTC</TIME_SYSTEM><MEAN_ELEMENT_THEORY>SGP4</MEAN_ELEMENT_THEORY></metadata><data><meanElements><EPOCH>2024-08-10T23:02:47.958720</EPOCH><MEAN_MOTION>14.56925168</MEAN_MOTION><ECCENTRICITY>.0002007</ECCENTRICITY><INCLINATION>47.0038</INCLINATION><RA_OF_ASC_NODE>40.2547</RA_OF_ASC_NODE><ARG_OF_PERICENTER>310.0381</ARG_OF_PERICENTER><MEAN_ANOMALY>50.0328</MEAN_ANOMALY></meanElements><tleParameters><EPHEMERIS_TYPE>0</EPHEMERIS_TYPE><CLASSIFICATION_TYPE>U</CLASSIFICATION_TYPE><NORAD_CAT_ID>40086</NORAD_CAT_ID><ELEMENT_SET_NO>999</ELEMENT_SET_NO><REV_AT_EPOCH>53592</REV_AT_EPOCH><BSTAR>.66204E-3</BSTAR><MEAN_MOTION_DOT>.2833E-4</MEAN_MOTION_DOT><MEAN_MOTION_DDOT>0</MEAN_MOTION_DDOT></tleParameters></data></segment></body></omm>
<omm id="CCSDS_OMM_VERS" version="2.0">
<header><CREATION_DATE/><ORIGINATOR/></header><body><segment><metadata><OBJECT_NAME>ORBCOMM FM107</OBJECT_NAME><OBJECT_ID>2014-040B</OBJECT_ID><CENTER_NAME>EARTH</CENTER_NAME><REF_FRAME>TEME</REF_FRAME><TIME_SYSTEM>UTC</TIME_SYSTEM><MEAN_ELEMENT_THEORY>SGP4</MEAN_ELEMENT_THEORY></metadata><data><meanElements><EPOCH>2024-08-10T20:33:59.780160</EPOCH><MEAN_MOTION>14.56918194</MEAN_MOTION><ECCENTRICITY>.00018</ECCENTRICITY><INCLINATION>47.0055</INCLINATION><RA_OF_ASC_NODE>41.7177</RA_OF_ASC_NODE><ARG_OF_PERICENTER>276.5845</ARG_OF_PERICENTER><MEAN_ANOMALY>83.4835</MEAN_ANOMALY></meanElements><tleParameters><EPHEMERIS_TYPE>0</EPHEMERIS_TYPE><CLASSIFICATION_TYPE>U</CLASSIFICATION_TYPE><NORAD_CAT_ID>40087</NORAD_CAT_ID><ELEMENT_SET_NO>999</ELEMENT_SET_NO><REV_AT_EPOCH>53586</REV_AT_EPOCH><BSTAR>.65856E-3</BSTAR><MEAN_MOTION_DOT>.2817E-4</MEAN_MOTION_DOT><MEAN_MOTION_DDOT>0</MEAN_MOTION_DDOT></tleParameters></data></segment></body></omm>
<omm id="CCSDS_OMM_VERS" version="2.0">
<header><CREATION_DATE/><ORIGINATOR/></header><body><segment><metadata><OBJECT_NAME>ORBCOMM FM106</OBJECT_NAME><OBJECT_ID>2014-040C</OBJECT_ID><CENTER_NAME>EARTH</CENTER_NAME><REF_FRAME>TEME</REF_FRAME><TIME_SYSTEM>UTC</TIME_SYSTEM><MEAN_ELEMENT_THEORY>SGP4</MEAN_ELEMENT_THEORY></metadata><data><meanElements><EPOCH>2024-08-11T01:48:44.991072</EPOCH><MEAN_MOTION>14.67429852</MEAN_MOTION><ECCENTRICITY>.001694</ECCENTRICITY><INCLINATION>47.0586</INCLINATION><RA_OF_ASC_NODE>246.9465</RA_OF_ASC_NODE><ARG_OF_PERICENTER>63.9346</ARG_OF_PERICENTER><MEAN_ANOMALY>296.3285</MEAN_ANOMALY></meanElements><tleParameters><EPHEMERIS_TYPE>0</EPHEMERIS_TYPE><CLASSIFICATION_TYPE>U</CLASSIFICATION_TYPE><NORAD_CAT_ID>40088</NORAD_CAT_ID><ELEMENT_SET_NO>999</ELEMENT_SET_NO><REV_AT_EPOCH>53810</REV_AT_EPOCH><BSTAR>.677E-3</BSTAR><MEAN_MOTION_DOT>.3694E-4</MEAN_MOTION_DOT><MEAN_MOTION_DDOT>0</MEAN_MOTION_DDOT></tleParameters></data></segment></body></omm>
<omm id="CCSDS_OMM_VERS" version="2.0">
<header><CREATION_DATE/><ORIGINATOR/></header><body><segment><metadata><OBJECT_NAME>ORBCOMM FM111</OBJECT_NAME><OBJECT_ID>2014-040D</OBJECT_ID><CENTER_NAME>EARTH</CENTER_NAME><REF_FRAME>TEME</REF_FRAME><TIME_SYSTEM>UTC</TIME_SYSTEM><MEAN_ELEMENT_THEORY>SGP4</MEAN_ELEMENT_THEORY></metadata><data><meanElements><EPOCH>2024-08-10T21:58:35.733504</EPOCH><MEAN_MOTION>14.82450333</MEAN_MOTION><ECCENTRICITY>.0032496</ECCENTRICITY><INCLINATION>47.0031</INCLINATION><RA_OF_ASC_NODE>137.7022</RA_OF_ASC_NODE><ARG_OF_PERICENTER>150.3180</ARG_OF_PERICENTER><MEAN_ANOMALY>209.9567</MEAN_ANOMALY></meanElements><tleParameters><EPHEMERIS_TYPE>0</EPHEMERIS_TYPE><CLASSIFICATION_TYPE>U</CLASSIFICATION_TYPE><NORAD_CAT_ID>40089</NORAD_CAT_ID><ELEMENT_SET_NO>999</ELEMENT_SET_NO><REV_AT_EPOCH>54412</REV_AT_EPOCH><BSTAR>.52256E-3</BSTAR><MEAN_MOTION_DOT>.4065E-4</MEAN_MOTION_DOT><MEAN_MOTION_DDOT>0</MEAN_MOTION_DDOT></tleParameters></data></segment></body></omm>
<omm id="CCSDS_OMM_VERS" version="2.0">
<header><CREATION_DATE/><ORIGINATOR/></header><body><segment><metadata><OBJECT_NAME>ORBCOMM FM104</OBJECT_NAME><OBJECT_ID>2014-040E</OBJECT_ID><CENTER_NAME>EARTH</CENTER_NAME><REF_FRAME>TEME</REF_FRAME><TIME_SYSTEM>UTC</TIME_SYSTEM><MEAN_ELEMENT_THEORY>SGP4</MEAN_ELEMENT_THEORY></metadata><data><meanElements><EPOCH>2024-08-10T22:11:00.365856</EPOCH><MEAN_MOTION>14.55379353</MEAN_MOTION><ECCENTRICITY>.0017377</ECCENTRICITY><INCLINATION>47.0060</INCLINATION><RA_OF_ASC_NODE>71.3666</RA_OF_ASC_NODE><ARG_OF_PERICENTER>228.2519</ARG_OF_PERICENTER><MEAN_ANOMALY>131.6880</MEAN_ANOMALY></meanElements><tleParameters><EPHEMERIS_TYPE>0</EPHEMERIS_TYPE><CLASSIFICATION_TYPE>U</CLASSIFICATION_TYPE><NORAD_CAT_ID>40090</NORAD_CAT_ID><ELEMENT_SET_NO>999</ELEMENT_SET_NO><REV_AT_EPOCH>53540</REV_AT_EPOCH><BSTAR>.51355E-3</BSTAR><MEAN_MOTION_DOT>.2087E-4</MEAN_MOTION_DOT><MEAN_MOTION_DDOT>0</MEAN_MOTION_DDOT></tleParameters></data></segment></body></omm>

</ndm>
